CTC2_L_00147001-01
1 73585U 25676KV  26037.47791667  .00000000  00000+0  00000-0 0  9998
2 73585  85.0000   0.0000 0000000   0.0000   0.0000 15.08755970    11
CTC2_L_00147001-02
1 73586U 23282XE  26037.47791667  .00000000  00000+0  00000-0 0  9990
2 73586  85.0000   0.0000 0000000   0.0000  90.0000 15.08755970    11
CTC2_L_00147001-03
1 73587U 22460SQ  26037.47791667  .00000000  00000+0  00000-0 0  9998
2 73587  85.0000   0.0000 0000000   0.0000 180.0000 15.08755970    12
CTC2_L_00147001-04
1 73588U 24073IC  26037.47791667  .00000000  00000+0  00000-0 0  9991
2 73588  85.0000   0.0000 0000000   0.0000 270.0000 15.08755970    13
CTC2_L_00147002-01
1 73589U 23086BD  26037.47791667  .00000000  00000+0  00000-0 0  9995
2 73589  85.0000  12.0000 0000000   0.0000  12.0000 15.08755970    11
CTC2_L_00147002-02
1 73590U 25313FK  26037.47791667  .00000000  00000+0  00000-0 0  9992
2 73590  85.0000  12.0000 0000000   0.0000 102.0000 15.08755970    13
CTC2_L_00147002-03
1 73591U 22985YI  26037.47791667  .00000000  00000+0  00000-0 0  9995
2 73591  85.0000  12.0000 0000000   0.0000 192.0000 15.08755970    13
CTC2_L_00147002-04
1 73592U 25294GN  26037.47791667  .00000000  00000+0  00000-0 0  9992
2 73592  85.0000  12.0000 0000000   0.0000 282.0000 15.08755970    14
CTC2_L_00147003-01
1 73593U 26076SC  26037.47791667  .00000000  00000+0  00000-0 0  9992
2 73593  85.0000  24.0000 0000000   0.0000  24.0000 15.08755970    12
CTC2_L_00147003-02
1 73594U 24671WH  26037.47791667  .00000000  00000+0  00000-0 0  9992
2 73594  85.0000  24.0000 0000000   0.0000 114.0000 15.08755970    13
CTC2_L_00147003-03
1 73595U 26763AH  26037.47791667  .00000000  00000+0  00000-0 0  9997
2 73595  85.0000  24.0000 0000000   0.0000 204.0000 15.08755970    14
CTC2_L_00147003-04
1 73596U 26265RI  26037.47791667  .00000000  00000+0  00000-0 0  9995
2 73596  85.0000  24.0000 0000000   0.0000 294.0000 15.08755970    14
CTC2_L_00147004-01
1 73597U 24629QC  26037.47791667  .00000000  00000+0  00000-0 0  9998
2 73597  85.0000  36.0000 0000000   0.0000  36.0000 15.08755970    12
CTC2_L_00147004-02
1 73598U 26678RX  26037.47791667  .00000000  00000+0  00000-0 0  9995
2 73598  85.0000  36.0000 0000000   0.0000 126.0000 15.08755970    13
CTC2_L_00147004-03
1 73599U 22865ZD  26037.47791667  .00000000  00000+0  00000-0 0  9990
2 73599  85.0000  36.0000 0000000   0.0000 216.0000 15.08755970    14
CTC2_L_00147004-04
1 73600U 25356TE  26037.47791667  .00000000  00000+0  00000-0 0  9991
2 73600  85.0000  36.0000 0000000   0.0000 306.0000 15.08755970    17
CTC2_L_00147005-01
1 73601U 25181PD  26037.47791667  .00000000  00000+0  00000-0 0  9998
2 73601  85.0000  48.0000 0000000   0.0000  48.0000 15.08755970    14
CTC2_L_00147005-02
1 73602U 23952S   26037.47791667  .00000000  00000+0  00000-0 0  9993
2 73602  85.0000  48.0000 0000000   0.0000 138.0000 15.08755970    15
CTC2_L_00147005-03
1 73603U 24574V   26037.47791667  .00000000  00000+0  00000-0 0  9995
2 73603  85.0000  48.0000 0000000   0.0000 228.0000 15.08755970    16
CTC2_L_00147005-04
1 73604U 24766NW  26037.47791667  .00000000  00000+0  00000-0 0  9999
2 73604  85.0000  48.0000 0000000   0.0000 318.0000 15.08755970    17
CTC2_L_00147006-01
1 73605U 22922FM  26037.47791667  .00000000  00000+0  00000-0 0  9992
2 73605  85.0000  60.0000 0000000   0.0000  60.0000 15.08755970    16
CTC2_L_00147006-02
1 73606U 25409PB  26037.47791667  .00000000  00000+0  00000-0 0  9996
2 73606  85.0000  60.0000 0000000   0.0000 150.0000 15.08755970    17
CTC2_L_00147006-03
1 73607U 25715KD  26037.47791667  .00000000  00000+0  00000-0 0  9997
2 73607  85.0000  60.0000 0000000   0.0000 240.0000 15.08755970    18
CTC2_L_00147006-04
1 73608U 26426ML  26037.47791667  .00000000  00000+0  00000-0 0  9998
2 73608  85.0000  60.0000 0000000   0.0000 330.0000 15.08755970    19
CTC2_L_00147007-01
1 73609U 25491QD  26037.47791667  .00000000  00000+0  00000-0 0  9990
2 73609  85.0000  72.0000 0000000   0.0000  72.0000 15.08755970    16
CTC2_L_00147007-02
1 73610U 23238JQ  26037.47791667  .00000000  00000+0  00000-0 0  9999
2 73610  85.0000  72.0000 0000000   0.0000 162.0000 15.08755970    18
CTC2_L_00147007-03
1 73611U 25383LB  26037.47791667  .00000000  00000+0  00000-0 0  9993
2 73611  85.0000  72.0000 0000000   0.0000 252.0000 15.08755970    19
CTC2_L_00147007-04
1 73612U 26403MN  26037.47791667  .00000000  00000+0  00000-0 0  9998
2 73612  85.0000  72.0000 0000000   0.0000 342.0000 15.08755970    10
CTC2_L_00147008-01
1 73613U 26445VU  26037.47791667  .00000000  00000+0  00000-0 0  9995
2 73613  85.0000  84.0000 0000000   0.0000  84.0000 15.08755970    17
CTC2_L_00147008-02
1 73614U 22853MR  26037.47791667  .00000000  00000+0  00000-0 0  9995
2 73614  85.0000  84.0000 0000000   0.0000 174.0000 15.08755970    18
CTC2_L_00147008-03
1 73615U 24932DX  26037.47791667  .00000000  00000+0  00000-0 0  9996
2 73615  85.0000  84.0000 0000000   0.0000 264.0000 15.08755970    19
CTC2_L_00147008-04
1 73616U 24984SY  26037.47791667  .00000000  00000+0  00000-0 0  9994
2 73616  85.0000  84.0000 0000000   0.0000 354.0000 15.08755970    10
CTC2_L_00147009-01
1 73617U 26141AR  26037.47791667  .00000000  00000+0  00000-0 0  9992
2 73617  85.0000  96.0000 0000000   0.0000  96.0000 15.08755970    17
CTC2_L_00147009-02
1 73618U 23943VE  26037.47791667  .00000000  00000+0  00000-0 0  9990
2 73618  85.0000  96.0000 0000000   0.0000 186.0000 15.08755970    18
CTC2_L_00147009-03
1 73619U 23666Z   26037.47791667  .00000000  00000+0  00000-0 0  9993
2 73619  85.0000  96.0000 0000000   0.0000 276.0000 15.08755970    19
CTC2_L_00147009-04
1 73620U 22203KA  26037.47791667  .00000000  00000+0  00000-0 0  9991
2 73620  85.0000  96.0000 0000000   0.0000   6.0000 15.08755970    12
CTC2_L_00147010-01
1 73621U 24547MQ  26037.47791667  .00000000  00000+0  00000-0 0  9995
2 73621  85.0000 108.0000 0000000   0.0000 108.0000 15.08755970    10
CTC2_L_00147010-02
1 73622U 24495UA  26037.47791667  .00000000  00000+0  00000-0 0  9998
2 73622  85.0000 108.0000 0000000   0.0000 198.0000 15.08755970    10
CTC2_L_00147010-03
1 73623U 26948PN  26037.47791667  .00000000  00000+0  00000-0 0  9994
2 73623  85.0000 108.0000 0000000   0.0000 288.0000 15.08755970    11
CTC2_L_00147010-04
1 73624U 26725EG  26037.47791667  .00000000  00000+0  00000-0 0  9998
2 73624  85.0000 108.0000 0000000   0.0000  18.0000 15.08755970    13
CTC2_L_00147011-01
1 73625U 25646AM  26037.47791667  .00000000  00000+0  00000-0 0  9990
2 73625  85.0000 120.0000 0000000   0.0000 120.0000 15.08755970    12
CTC2_L_00147011-02
1 73626U 23942CI  26037.47791667  .00000000  00000+0  00000-0 0  9998
2 73626  85.0000 120.0000 0000000   0.0000 210.0000 15.08755970    13
CTC2_L_00147011-03
1 73627U 22678JN  26037.47791667  .00000000  00000+0  00000-0 0  9994
2 73627  85.0000 120.0000 0000000   0.0000 300.0000 15.08755970    14
CTC2_L_00147011-04
1 73628U 26197IY  26037.47791667  .00000000  00000+0  00000-0 0  9995
2 73628  85.0000 120.0000 0000000   0.0000  30.0000 15.08755970    15
CTC2_L_00147012-01
1 73629U 23014CX  26037.47791667  .00000000  00000+0  00000-0 0  9991
2 73629  85.0000 132.0000 0000000   0.0000 132.0000 15.08755970    12
CTC2_L_00147012-02
1 73630U 25590AX  26037.47791667  .00000000  00000+0  00000-0 0  9994
2 73630  85.0000 132.0000 0000000   0.0000 222.0000 15.08755970    14
CTC2_L_00147012-03
1 73631U 23412JG  26037.47791667  .00000000  00000+0  00000-0 0  9996
2 73631  85.0000 132.0000 0000000   0.0000 312.0000 15.08755970    15
CTC2_L_00147012-04
1 73632U 26565GS  26037.47791667  .00000000  00000+0  00000-0 0  9999
2 73632  85.0000 132.0000 0000000   0.0000  42.0000 15.08755970    16
CTC2_L_00147013-01
1 73633U 25790JN  26037.47791667  .00000000  00000+0  00000-0 0  9999
2 73633  85.0000 144.0000 0000000   0.0000 144.0000 15.08755970    13
CTC2_L_00147013-02
1 73634U 25504DY  26037.47791667  .00000000  00000+0  00000-0 0  9993
2 73634  85.0000 144.0000 0000000   0.0000 234.0000 15.08755970    14
CTC2_L_00147013-03
1 73635U 25645V   26037.47791667  .00000000  00000+0  00000-0 0  9990
2 73635  85.0000 144.0000 0000000   0.0000 324.0000 15.08755970    15
CTC2_L_00147013-04
1 73636U 26351JZ  26037.47791667  .00000000  00000+0  00000-0 0  9996
2 73636  85.0000 144.0000 0000000   0.0000  54.0000 15.08755970    16
CTC2_L_00147014-01
1 73637U 22445XG  26037.47791667  .00000000  00000+0  00000-0 0  9997
2 73637  85.0000 156.0000 0000000   0.0000 156.0000 15.08755970    13
CTC2_L_00147014-02
1 73638U 24866JP  26037.47791667  .00000000  00000+0  00000-0 0  9997
2 73638  85.0000 156.0000 0000000   0.0000 246.0000 15.08755970    14
CTC2_L_00147014-03
1 73639U 22487LI  26037.47791667  .00000000  00000+0  00000-0 0  9995
2 73639  85.0000 156.0000 0000000   0.0000 336.0000 15.08755970    15
CTC2_L_00147014-04
1 73640U 26773DU  26037.47791667  .00000000  00000+0  00000-0 0  9999
2 73640  85.0000 156.0000 0000000   0.0000  66.0000 15.08755970    17
CTC2_L_00147015-01
1 73641U 23897HL  26037.47791667  .00000000  00000+0  00000-0 0  9994
2 73641  85.0000 168.0000 0000000   0.0000 168.0000 15.08755970    14
CTC2_L_00147015-02
1 73642U 23783MR  26037.47791667  .00000000  00000+0  00000-0 0  9999
2 73642  85.0000 168.0000 0000000   0.0000 258.0000 15.08755970    15
CTC2_L_00147015-03
1 73643U 25534DG  26037.47791667  .00000000  00000+0  00000-0 0  9996
2 73643  85.0000 168.0000 0000000   0.0000 348.0000 15.08755970    16
CTC2_L_00147015-04
1 73644U 23227D   26037.47791667  .00000000  00000+0  00000-0 0  9994
2 73644  85.0000 168.0000 0000000   0.0000  78.0000 15.08755970    17
CTC2_L_00147016-01
1 73645U 22854GQ  26037.47791667  .00000000  00000+0  00000-0 0  9990
2 73645  85.0000 180.0000 0000000   0.0000 180.0000 15.08755970    16
CTC2_L_00147016-02
1 73646U 25783JY  26037.47791667  .00000000  00000+0  00000-0 0  9995
2 73646  85.0000 180.0000 0000000   0.0000 270.0000 15.08755970    17
